start=new Date('2022-10-23T00:00:00.000Z').valueOf();
sats=[{"ELEMENT_SET_NO":"999","TLE_LINE1":"1 47133U 20088M   22295.76626788  .00001697  00000-0  13275-3 0  9990","SEMIMAJOR_AXIS":"6925.337","EPHEMERIS_TYPE":"0","PERIOD":"95.592","ARG_OF_PERICENTER":"120.8311","LAUNCH_DATE":"2020-11-25","INCLINATION":"53.0546","MEAN_ELEMENT_THEORY":"SGP4","MEAN_MOTION_DOT":"0.00001697","OBJECT_ID":"2020-088M","MEAN_MOTION_DDOT":"0.0000000000000","APOAPSIS":"548.266","CENTER_NAME":"EARTH","NORAD_CAT_ID":"47133","FILE":"3629797","OBJECT_NAME":"STARLINK-1843","PERIAPSIS":"546.137","MEAN_MOTION":"15.06403821","MEAN_ANOMALY":"239.2829","REF_FRAME":"TEME","RCS_SIZE":"LARGE","REV_AT_EPOCH":"10599","EPOCH":"2022-10-22T18:23:25.544832","OBJECT_TYPE":"PAYLOAD","DECAY_DATE":null,"SITE":"AFETR","COUNTRY_CODE":"US","GP_ID":"215924374","ECCENTRICITY":"0.00015370","CLASSIFICATION_TYPE":"U","RA_OF_ASC_NODE":"70.9285","TIME_SYSTEM":"UTC","TLE_LINE2":"2 47133  53.0546  70.9285 0001537 120.8311 239.2829 15.06403821105995","BSTAR":"0.00013275000000"},{"ARG_OF_PERICENTER":"102.5481","LAUNCH_DATE":"2020-11-25","INCLINATION":"53.0544","EPHEMERIS_TYPE":"0","PERIOD":"95.592","ELEMENT_SET_NO":"999","TLE_LINE1":"1 47134U 20088N   22295.80590194  .00003483  00000-0  25258-3 0  9996","SEMIMAJOR_AXIS":"6925.324","MEAN_MOTION_DDOT":"0.0000000000000","OBJECT_ID":"2020-088N","MEAN_MOTION_DOT":"0.00003483","MEAN_ELEMENT_THEORY":"SGP4","REF_FRAME":"TEME","NORAD_CAT_ID":"47134","FILE":"3629797","OBJECT_NAME":"STARLINK-1844","PERIAPSIS":"546.071","MEAN_ANOMALY":"257.5688","MEAN_MOTION":"15.06408161","CENTER_NAME":"EARTH","APOAPSIS":"548.306","TLE_LINE2":"2 47134  53.0544  80.7438 0001613 102.5481 257.5688 15.06408161105867","BSTAR":"0.00025258000000","ECCENTRICITY":"0.00016130","CLASSIFICATION_TYPE":"U","RA_OF_ASC_NODE":"80.7438","TIME_SYSTEM":"UTC","DECAY_DATE":null,"OBJECT_TYPE":"PAYLOAD","SITE":"AFETR","COUNTRY_CODE":"US","GP_ID":"215925626","RCS_SIZE":"LARGE","REV_AT_EPOCH":"10586","EPOCH":"2022-10-22T19:20:29.927616"},{"EPHEMERIS_TYPE":"0","PERIOD":"95.592","TLE_LINE1":"1 47135U 20088P   22295.75890311  .00003819  00000-0  27517-3 0  9998","ELEMENT_SET_NO":"999","SEMIMAJOR_AXIS":"6925.351","ARG_OF_PERICENTER":"92.0036","LAUNCH_DATE":"2020-11-25","INCLINATION":"53.0534","OBJECT_ID":"2020-088P","MEAN_MOTION_DOT":"0.00003819","MEAN_ELEMENT_THEORY":"SGP4","MEAN_MOTION_DDOT":"0.0000000000000","APOAPSIS":"548.205","CENTER_NAME":"EARTH","REF_FRAME":"TEME","NORAD_CAT_ID":"47135","FILE":"3629797","PERIAPSIS":"546.227","OBJECT_NAME":"STARLINK-1845","MEAN_ANOMALY":"268.1117","MEAN_MOTION":"15.06399227","DECAY_DATE":null,"OBJECT_TYPE":"PAYLOAD","SITE":"AFETR","COUNTRY_CODE":"US","GP_ID":"215925376","REV_AT_EPOCH":"10599","RCS_SIZE":"LARGE","EPOCH":"2022-10-22T18:12:49.228704","TLE_LINE2":"2 47135  53.0534  70.9504 0001428  92.0036 268.1117 15.06399227105996","BSTAR":"0.00027517000000","ECCENTRICITY":"0.00014280","CLASSIFICATION_TYPE":"U","RA_OF_ASC_NODE":"70.9504","TIME_SYSTEM":"UTC"},{"MEAN_ELEMENT_THEORY":"SGP4","OBJECT_ID":"2020-088Q","MEAN_MOTION_DOT":"-0.00000246","MEAN_MOTION_DDOT":"0.0000000000000","SEMIMAJOR_AXIS":"6925.358","TLE_LINE1":"1 47136U 20088Q   22295.82433355 -.00000246  00000-0  23952-5 0  9991","ELEMENT_SET_NO":"999","PERIOD":"95.592","EPHEMERIS_TYPE":"0","INCLINATION":"53.0554","ARG_OF_PERICENTER":"102.2389","LAUNCH_DATE":"2020-11-25","EPOCH":"2022-10-22T19:47:02.418720","REV_AT_EPOCH":"10586","RCS_SIZE":"LARGE","COUNTRY_CODE":"US","GP_ID":"215924124","DECAY_DATE":null,"OBJECT_TYPE":"PAYLOAD","SITE":"AFETR","RA_OF_ASC_NODE":"80.6442","TIME_SYSTEM":"UTC","ECCENTRICITY":"0.00013400","CLASSIFICATION_TYPE":"U","TLE_LINE2":"2 47136  53.0554  80.6442 0001340 102.2389 257.8750 15.06397027105866","BSTAR":"0.00000239520000","APOAPSIS":"548.151","CENTER_NAME":"EARTH","PERIAPSIS":"546.295","OBJECT_NAME":"STARLINK-1846","MEAN_MOTION":"15.06397027","MEAN_ANOMALY":"257.8750","NORAD_CAT_ID":"47136","FILE":"3629797","REF_FRAME":"TEME"},{"APOAPSIS":"548.201","CENTER_NAME":"EARTH","REF_FRAME":"TEME","MEAN_ANOMALY":"278.2497","MEAN_MOTION":"15.06395351","PERIAPSIS":"546.255","OBJECT_NAME":"STARLINK-1849","FILE":"3629797","NORAD_CAT_ID":"47137","COUNTRY_CODE":"US","GP_ID":"215924875","SITE":"AFETR","DECAY_DATE":null,"OBJECT_TYPE":"PAYLOAD","EPOCH":"2022-10-22T16:10:44.784480","RCS_SIZE":"LARGE","REV_AT_EPOCH":"10598","BSTAR":"0.00008427900000","TLE_LINE2":"2 47137  53.0558  71.3339 0001405  81.8652 278.2497 15.06395351105986","RA_OF_ASC_NODE":"71.3339","TIME_SYSTEM":"UTC","CLASSIFICATION_TYPE":"U","ECCENTRICITY":"0.00014050","PERIOD":"95.592","EPHEMERIS_TYPE":"0","SEMIMAJOR_AXIS":"6925.363","TLE_LINE1":"1 47137U 20088R   22295.67412945  .00000974  00000-0  84279-4 0  9992","ELEMENT_SET_NO":"999","INCLINATION":"53.0558","LAUNCH_DATE":"2020-11-25","ARG_OF_PERICENTER":"81.8652","OBJECT_ID":"2020-088R","MEAN_MOTION_DOT":"0.00000974","MEAN_ELEMENT_THEORY":"SGP4","MEAN_MOTION_DDOT":"0.0000000000000"},{"RA_OF_ASC_NODE":"76.0710","TIME_SYSTEM":"UTC","CLASSIFICATION_TYPE":"U","ECCENTRICITY":"0.00014330","BSTAR":"0.00010622000000","TLE_LINE2":"2 47138  53.0557  76.0710 0001433  82.4734 277.6418 15.06397547105930","EPOCH":"2022-10-22T19:18:33.131232","RCS_SIZE":"LARGE","REV_AT_EPOCH":"10593","COUNTRY_CODE":"US","GP_ID":"215925126","DECAY_DATE":null,"OBJECT_TYPE":"PAYLOAD","SITE":"AFETR","MEAN_ANOMALY":"277.6418","MEAN_MOTION":"15.06397547","PERIAPSIS":"546.229","OBJECT_NAME":"STARLINK-1850","FILE":"3629797","NORAD_CAT_ID":"47138","REF_FRAME":"TEME","CENTER_NAME":"EARTH","APOAPSIS":"548.213","MEAN_MOTION_DDOT":"0.0000000000000","MEAN_ELEMENT_THEORY":"SGP4","OBJECT_ID":"2020-088S","MEAN_MOTION_DOT":"0.00001301","INCLINATION":"53.0557","LAUNCH_DATE":"2020-11-25","ARG_OF_PERICENTER":"82.4734","SEMIMAJOR_AXIS":"6925.356","TLE_LINE1":"1 47138U 20088S   22295.80455013  .00001301  00000-0  10622-3 0  9996","ELEMENT_SET_NO":"999","PERIOD":"95.592","EPHEMERIS_TYPE":"0"},{"BSTAR":"0.00011067000000","TLE_LINE2":"2 47139  53.0540  86.3043 0001074 105.0662 255.0446 15.06405271105776","CLASSIFICATION_TYPE":"U","ECCENTRICITY":"0.00010740","TIME_SYSTEM":"UTC","RA_OF_ASC_NODE":"86.3043","DECAY_DATE":null,"SITE":"AFETR","OBJECT_TYPE":"PAYLOAD","COUNTRY_CODE":"US","GP_ID":"215925877","REV_AT_EPOCH":"10577","RCS_SIZE":"LARGE","EPOCH":"2022-10-22T17:20:25.932768","REF_FRAME":"TEME","FILE":"3629797","NORAD_CAT_ID":"47139","MEAN_ANOMALY":"255.0446","MEAN_MOTION":"15.06405271","OBJECT_NAME":"STARLINK-1852","PERIAPSIS":"546.454","CENTER_NAME":"EARTH","APOAPSIS":"547.941","MEAN_MOTION_DDOT":"0.0000000000000","OBJECT_ID":"2020-088T","MEAN_MOTION_DOT":"0.00001368","MEAN_ELEMENT_THEORY":"SGP4","LAUNCH_DATE":"2020-11-25","ARG_OF_PERICENTER":"105.0662","INCLINATION":"53.0540","EPHEMERIS_TYPE":"0","PERIOD":"95.592","TLE_LINE1":"1 47139U 20088T   22295.72252237  .00001368  00000-0  11067-3 0  9998","ELEMENT_SET_NO":"999","SEMIMAJOR_AXIS":"6925.332"},{"CENTER_NAME":"EARTH","APOAPSIS":"548.185","REF_FRAME":"TEME","MEAN_MOTION":"15.06403102","MEAN_ANOMALY":"256.3779","OBJECT_NAME":"STARLINK-1854","PERIAPSIS":"546.223","FILE":"3629797","NORAD_CAT_ID":"47141","COUNTRY_CODE":"US","GP_ID":"215924625","OBJECT_TYPE":"PAYLOAD","DECAY_DATE":null,"SITE":"AFETR","EPOCH":"2022-10-22T15:33:35.209152","RCS_SIZE":"LARGE","REV_AT_EPOCH":"10598","BSTAR":"-0.00006479000000","TLE_LINE2":"2 47141  53.0536  71.4523 0001417 103.7368 256.3779 15.06403102105988","TIME_SYSTEM":"UTC","RA_OF_ASC_NODE":"71.4523","CLASSIFICATION_TYPE":"U","ECCENTRICITY":"0.00014170","PERIOD":"95.592","EPHEMERIS_TYPE":"0","SEMIMAJOR_AXIS":"6925.339","TLE_LINE1":"1 47141U 20088V   22295.64832418 -.00001246  00000-0 -64790-4 0  9996","ELEMENT_SET_NO":"999","INCLINATION":"53.0536","LAUNCH_DATE":"2020-11-25","ARG_OF_PERICENTER":"103.7368","MEAN_MOTION_DOT":"-0.00001246","OBJECT_ID":"2020-088V","MEAN_ELEMENT_THEORY":"SGP4","MEAN_MOTION_DDOT":"0.0000000000000"},{"BSTAR":"0.00007624000000","TLE_LINE2":"2 47143  53.0555  70.9326 0001518  87.6355 272.4808 15.06397911105997","RA_OF_ASC_NODE":"70.9326","TIME_SYSTEM":"UTC","CLASSIFICATION_TYPE":"U","ECCENTRICITY":"0.00015180","COUNTRY_CODE":"US","GP_ID":"215924375","DECAY_DATE":null,"SITE":"AFETR","OBJECT_TYPE":"PAYLOAD","EPOCH":"2022-10-22T18:18:07.780320","RCS_SIZE":"LARGE","REV_AT_EPOCH":"10599","REF_FRAME":"TEME","MEAN_MOTION":"15.06397911","MEAN_ANOMALY":"272.4808","OBJECT_NAME":"STARLINK-1856","PERIAPSIS":"546.169","FILE":"3629797","NORAD_CAT_ID":"47143","CENTER_NAME":"EARTH","APOAPSIS":"548.271","MEAN_MOTION_DDOT":"0.0000000000000","OBJECT_ID":"2020-088X","MEAN_MOTION_DOT":"0.00000854","MEAN_ELEMENT_THEORY":"SGP4","INCLINATION":"53.0555","LAUNCH_DATE":"2020-11-25","ARG_OF_PERICENTER":"87.6355","PERIOD":"95.592","EPHEMERIS_TYPE":"0","SEMIMAJOR_AXIS":"6925.355","ELEMENT_SET_NO":"999","TLE_LINE1":"1 47143U 20088X   22295.76259005  .00000854  00000-0  76240-4 0  9991"},{"INCLINATION":"53.0549","ARG_OF_PERICENTER":"76.3373","LAUNCH_DATE":"2020-11-25","SEMIMAJOR_AXIS":"6925.354","TLE_LINE1":"1 47144U 20088Y   22295.74876676 -.00000399  00000-0 -78826-5 0  9998","ELEMENT_SET_NO":"999","PERIOD":"95.592","EPHEMERIS_TYPE":"0","MEAN_MOTION_DDOT":"0.0000000000000","MEAN_ELEMENT_THEORY":"SGP4","OBJECT_ID":"2020-088Y","MEAN_MOTION_DOT":"-0.00000399","OBJECT_NAME":"STARLINK-1857","PERIAPSIS":"546.281","MEAN_ANOMALY":"283.7767","MEAN_MOTION":"15.06398234","NORAD_CAT_ID":"47144","FILE":"3629797","REF_FRAME":"TEME","APOAPSIS":"548.157","CENTER_NAME":"EARTH","TIME_SYSTEM":"UTC","RA_OF_ASC_NODE":"60.9899","ECCENTRICITY":"0.00013540","CLASSIFICATION_TYPE":"U","TLE_LINE2":"2 47144  53.0549  60.9899 0001354  76.3373 283.7767 15.06398234106133","BSTAR":"-0.00000788260000","EPOCH":"2022-10-22T17:58:13.448064","REV_AT_EPOCH":"10613","RCS_SIZE":"LARGE","GP_ID":"215925627","COUNTRY_CODE":"US","DECAY_DATE":null,"SITE":"AFETR","OBJECT_TYPE":"PAYLOAD"}];
